$$SOE
2460728.500000000, A.D. 2025-Feb-22 00:00:00.0000, 2.516660946967081E+08, 3.106723208986031E+08, -1.880686109600407E+07,
2460735.500000000, A.D. 2025-Mar-01 00:00:00.0000, 2.425704572472994E+08, 3.171302419494029E+08, -1.920421382131051E+07,
2460742.500000000, A.D. 2025-Mar-08 00:00:00.0000, 2.332904025502147E+08, 3.233472461900698E+08, -1.958696452125274E+07,
2460749.500000000, A.D. 2025-Mar-15 00:00:00.0000, 2.238322861872838E+08, 3.293176448510746E+08, -1.995476336432897E+07,
2460756.500000000, A.D. 2025-Mar-22 00:00:00.0000, 2.142026616336886E+08, 3.350359131433696E+08, -2.030727002753931E+07,
2460763.500000000, A.D. 2025-Mar-29 00:00:00.0000, 2.044082757627027E+08, 3.404966964882240E+08, -2.064415425538954E+07,
2460770.500000000, A.D. 2025-Apr-05 00:00:00.0000, 1.944560656684046E+08, 3.456948175978285E+08, -2.096509650000755E+07,
2460777.500000000, A.D. 2025-Apr-12 00:00:00.0000, 1.843531548742313E+08, 3.506252844884606E+08, -2.126978845618442E+07,
2460784.500000000, A.D. 2025-Apr-19 00:00:00.0000, 1.741068487349582E+08, 3.552832985241250E+08, -2.155793354504767E+07,
2460791.500000000, A.D. 2025-Apr-26 00:00:00.0000, 1.637246293006363E+08, 3.596642622669457E+08, -2.182924738681431E+07,
2460798.500000000, A.D. 2025-May-03 00:00:00.0000, 1.532141497545139E+08, 3.637637871321005E+08, -2.208345827038015E+07,
2460805.500000000, A.D. 2025-May-10 00:00:00.0000, 1.425832284531634E+08, 3.675777008339154E+08, -2.232030762047437E+07,
2460812.500000000, A.D. 2025-May-17 00:00:00.0000, 1.318398426064365E+08, 3.711020545595381E+08, -2.253955046781532E+07,
2460819.500000000, A.D. 2025-May-24 00:00:00.0000, 1.209921217733178E+08, 3.743331297930434E+08, -2.274095594130422E+07,
2460826.500000000, A.D. 2025-May-31 00:00:00.0000, 1.100483415952496E+08, 3.772674450789918E+08, -2.292430779385850E+07,
2460833.500000000, A.D. 2025-Jun-07 00:00:00.0000, 9.901691737296537E+07, 3.799017639085521E+08, -2.308940482564288E+07,
2460840.500000000, A.D. 2025-Jun-14 00:00:00.0000, 8.790639513085793E+07, 3.822331030347648E+08, -2.323606104078366E+07,
2460847.500000000, A.D. 2025-Jun-21 00:00:00.0000, 7.672544139038388E+07, 3.842587379191189E+08, -2.336410591400166E+07,
2460854.500000000, A.D. 2025-Jun-28 00:00:00.0000, 6.548283478980844E+07, 3.859762070567448E+08, -2.347338490874189E+07,
2460861.500000000, A.D. 2025-Jul-05 00:00:00.0000, 5.418745804869765E+07, 3.873833173160279E+08, -2.356375993065713E+07,
2460868.500000000, A.D. 2025-Jul-12 00:00:00.0000, 4.284828910008907E+07, 3.884781494632240E+08, -2.363510967133828E+07,
2460875.500000000, A.D. 2025-Jul-19 00:00:00.0000, 3.147439159437549E+07, 3.892590632751207E+08, -2.368732990499209E+07,
2460882.500000000, A.D. 2025-Jul-26 00:00:00.0000, 2.007490500134950E+07, 3.897247021630855E+08, -2.372033376046245E+07,
2460889.500000000, A.D. 2025-Aug-02 00:00:00.0000, 8.659034394129282E+06, 3.898739973111926E+08, -2.373405197143298E+07,
2460896.500000000, A.D. 2025-Aug-09 00:00:00.0000, -2.763960041682943E+06, 3.897061712960740E+08, -2.372843310682246E+07,
2460903.500000000, A.D. 2025-Aug-16 00:00:00.0000, -1.418477367519175E+07, 3.892207411089564E+08, -2.370344379234427E+07,
2460910.500000000, A.D. 2025-Aug-23 00:00:00.0000, -2.559406795813377E+07, 3.884175205816919E+08, -2.365906894758014E+07,
2460917.500000000, A.D. 2025-Aug-30 00:00:00.0000, -3.698248045992602E+07, 3.872966229185014E+08, -2.359531200951914E+07,
2460924.500000000, A.D. 2025-Sep-06 00:00:00.0000, -4.834063579965521E+07, 3.858584643235394E+08, -2.351219493031894E+07,
2460931.500000000, A.D. 2025-Sep-13 00:00:00.0000, -5.965915911311281E+07, 3.841037662261717E+08, -2.340975799766690E+07,
2460938.500000000, A.D. 2025-Sep-20 00:00:00.0000, -7.092868875381209E+07, 3.820335544402903E+08, -2.328805990959103E+07,
2460945.500000000, A.D. 2025-Sep-27 00:00:00.0000, -8.213988714494978E+07, 3.796491583603361E+08, -2.314717794526559E+07,
2460952.500000000, A.D. 2025-Oct-04 00:00:00.0000, -9.328345177096203E+07, 3.769522107282635E+08, -2.298720800235054E+07,
2460959.500000000, A.D. 2025-Oct-11 00:00:00.0000, -1.043501266544903E+08, 3.739446470248078E+08, -2.280826454325424E+07,
2460966.500000000, A.D. 2025-Oct-18 00:00:00.0000, -1.153307140062995E+08, 3.706287042118028E+08, -2.261048049910271E+07,
2460973.500000000, A.D. 2025-Oct-25 00:00:00.0000, -1.262160858772658E+08, 3.670069188400807E+08, -2.239400714405619E+07,
2460980.500000000, A.D. 2025-Nov-01 00:00:00.0000, -1.369971957403503E+08, 3.630821245420468E+08, -2.215901394298327E+07,
2460987.500000000, A.D. 2025-Nov-08 00:00:00.0000, -1.476650899356582E+08, 3.588574488811714E+08, -2.190568837870741E+07,
2460994.500000000, A.D. 2025-Nov-15 00:00:00.0000, -1.582109187994254E+08, 3.543363095044447E+08, -2.163423577760504E+07,
2461001.500000000, A.D. 2025-Nov-22 00:00:00.0000, -1.686259470443461E+08, 3.495224098241838E+08, -2.134487915301426E+07,
2461008.500000000, A.D. 2025-Nov-29 00:00:00.0000, -1.789015635165565E+08, 3.444197353734924E+08, -2.103785896050417E+07,
2461015.500000000, A.D. 2025-Dec-06 00:00:00.0000, -1.890292925794514E+08, 3.390325507133511E+08, -2.071343256874369E+07,
2461022.500000000, A.D. 2025-Dec-13 00:00:00.0000, -1.990008066600054E+08, 3.333653935342849E+08, -2.037187376212063E+07,
2461029.500000000, A.D. 2025-Dec-20 00:00:00.0000, -2.088079364372579E+08, 3.274230669853344E+08, -2.001347251186399E+07,
2461036.500000000, A.D. 2025-Dec-27 00:00:00.0000, -2.184426797262470E+08, 3.212106328397563E+08, -1.963853470695284E+07,
2461043.500000000, A.D. 2026-Jan-03 00:00:00.0000, -2.278972104933417E+08, 3.147334049048609E+08, -1.924738176326984E+07,
2461050.500000000, A.D. 2026-Jan-10 00:00:00.0000, -2.371638878691272E+08, 3.079969420181359E+08, -1.884035017772847E+07,
2461057.500000000, A.D. 2026-Jan-17 00:00:00.0000, -2.462352649043524E+08, 3.010070405597457E+08, -1.841779105724670E+07,
2461064.500000000, A.D. 2026-Jan-24 00:00:00.0000, -2.551040969706155E+08, 2.937697265272771E+08, -1.798006962900418E+07,
2461071.500000000, A.D. 2026-Jan-31 00:00:00.0000, -2.637633497631846E+08, 2.862912471893302E+08, -1.752756473589140E+07,
2461078.500000000, A.D. 2026-Feb-07 00:00:00.0000, -2.722062068269132E+08, 2.785780622848186E+08, -1.706066832861488E+07,
2461085.500000000, A.D. 2026-Feb-14 00:00:00.0000, -2.804260763369604E+08, 2.706368347769363E+08, -1.657978498010860E+07,
2461092.500000000, A.D. 2026-Feb-21 00:00:00.0000, -2.884165967346141E+08, 2.624744217633942E+08, -1.608533141197686E+07,
2461099.500000000, A.D. 2026-Feb-28 00:00:00.0000, -2.961716422952231E+08, 2.540978667225408E+08, -1.557773584096603E+07,
2461106.500000000, A.D. 2026-Mar-07 00:00:00.0000, -3.036853306822764E+08, 2.455143911755507E+08, -1.505743711838277E+07,
2461113.500000000, A.D. 2026-Mar-14 00:00:00.0000, -3.109520297041129E+08, 2.367313834627166E+08, -1.452488410942411E+07,
2461120.500000000, A.D. 2026-Mar-21 00:00:00.0000, -3.179663614826782E+08, 2.277563875571072E+08, -1.398053523993394E+07,
2461127.500000000, A.D. 2026-Mar-28 00:00:00.0000, -3.247232060437293E+08, 2.185970929715647E+08, -1.342485794406220E+07,
2461134.500000000, A.D. 2026-Apr-04 00:00:00.0000, -3.312177049327634E+08, 2.092613248242868E+08, -1.285832803846938E+07,
2461141.500000000, A.D. 2026-Apr-11 00:00:00.0000, -3.374452645818623E+08, 1.997570337316476E+08, -1.228142907902544E+07,
2461148.500000000, A.D. 2026-Apr-18 00:00:00.0000, -3.434015592689750E+08, 1.900922855479055E+08, -1.169465171636215E+07,
2461155.500000000, A.D. 2026-Apr-25 00:00:00.0000, -3.490825336270341E+08, 1.802752509920909E+08, -1.109849305456083E+07,
2461162.500000000, A.D. 2026-May-02 00:00:00.0000, -3.544844046775120E+08, 1.703141951576721E+08, -1.049345601956762E+07,
2461169.500000000, A.D. 2026-May-09 00:00:00.0000, -3.596036632708463E+08, 1.602174668636758E+08, -9.880048755571753E+06,
2461176.500000000, A.D. 2026-May-16 00:00:00.0000, -3.644370745640499E+08, 1.499934880101357E+08, -9.258784074087650E+06,
2461183.500000000, A.D. 2026-May-23 00:00:00.0000, -3.689816774926145E+08, 1.396507439840795E+08, -8.630178878260747E+06,
2461190.500000000, A.D. 2026-May-30 00:00:00.0000, -3.732347853254002E+08, 1.291977754584722E+08, -7.994753346995771E+06,
2461197.500000000, A.D. 2026-Jun-06 00:00:00.0000, -3.771939876312738E+08, 1.186431683335405E+08, -7.353030118694805E+06,
2461204.500000000, A.D. 2026-Jun-13 00:00:00.0000, -3.808571499991313E+08, 1.079955420405338E+08, -6.705533795211837E+06,
2461211.500000000, A.D. 2026-Jun-20 00:00:00.0000, -3.842224120192743E+08, 9.726353914783975E+07, -6.052790481280673E+06,
2461218.500000000, A.D. 2026-Jun-27 00:00:00.0000, -3.872881852410994E+08, 8.645581594093016E+07, -5.395327232962955E+06,
2461225.500000000, A.D. 2026-Jul-04 00:00:00.0000, -3.900531511296228E+08, 7.558103321683939E+07, -4.733671480617575E+06,
2461232.500000000, A.D. 2026-Jul-11 00:00:00.0000, -3.925162587878141E+08, 6.464784717905505E+07, -4.068350462239470E+06,
2461239.500000000, A.D. 2026-Jul-18 00:00:00.0000, -3.946767223703606E+08, 5.366490047527976E+07, -3.399890674843211E+06,
2461246.500000000, A.D. 2026-Jul-25 00:00:00.0000, -3.965340181812479E+08, 4.264081339526352E+07, -2.728817346830918E+06,
2461253.500000000, A.D. 2026-Aug-01 00:00:00.0000, -3.980878814234168E+08, 3.158417519270504E+07, -2.055653940393144E+06,
2461260.500000000, A.D. 2026-Aug-08 00:00:00.0000, -3.993383024020981E+08, 2.050353550547847E+07, -1.380921707152712E+06,
2461267.500000000, A.D. 2026-Aug-15 00:00:00.0000, -4.002855217834108E+08, 9.407396333131969E+06, -7.051392987827901E+05,
2461274.500000000, A.D. 2026-Aug-22 00:00:00.0000, -4.009300256859811E+08, -1.695794200189122E+06, -2.882226341597294E+04,
2461281.500000000, A.D. 2026-Aug-29 00:00:00.0000, -4.012725429130698E+08, -1.279764766514598E+07, 6.475176693798513E+05,
2461288.500000000, A.D. 2026-Sep-05 00:00:00.0000, -4.013140422124488E+08, -2.388984359202376E+07, 1.323373084455660E+06,
2461295.500000000, A.D. 2026-Sep-12 00:00:00.0000, -4.010557271270902E+08, -3.496413767907272E+07, 1.998241136557976E+06,
$$EOE